LINGQIAO VIDEO A        
1 40959U 15057B   26165.85562933  .00000345  00000+0  55248-4 0  9995
2 40959  97.6613 160.7721 0015223 278.8620  81.0867 14.77389270575062
LINGQIAO VIDEO B        
1 40960U 15057C   26165.90019233  .00001032  00000+0  15123-3 0  9994
2 40960  97.6579 161.9787 0015335 278.5663  81.3810 14.77498417575119
JILIN-1                 
1 40961U 15057D   26165.84706370  .00000718  00000+0  10571-3 0  9995
2 40961  97.6507 165.3299 0015312 271.4015  88.5443 14.78156962575269
FOX-1A (AO-85)          
1 40967U 15058D   26165.66956632  .00002284  00000+0  21146-3 0  9990
2 40967  64.7762 286.8077 0130289  57.5807 303.7830 14.90959259113195
SINOD-D 1               
1 40968U 15058E   26165.60471961  .00003177  00000+0  25974-3 0  9997
2 40968  64.7761 266.9995 0118880  54.1051 307.1029 14.95891927116272
ELEKTRO-L 2             
1 41105U 15074A   26165.04412756 -.00000114  00000+0  00000+0 0  9992
2 41105   6.6845  70.5612 0000704 243.9352 309.2359  1.00270718 38471
DAMPE                   
1 41173U 15078A   26165.81515628  .00001015  00000+0  36656-4 0  9999
2 41173  97.4552 171.2701 0013831  84.7377 275.5442 15.30779099584186
ORBCOMM FM110           
1 41182U 15081D   26165.29599256  .00000633  00000+0  17014-3 0  9995
2 41182  47.0033  15.1133 0002589  58.4001 301.7137 14.58876713557202
ORBCOMM FM112           
1 41184U 15081F   26165.60879625  .00000537  00000+0  14973-3 0  9997
2 41184  46.9997 282.4402 0003589 206.9755 153.0944 14.58900840558570
ORBCOMM FM113           
1 41185U 15081G   26165.58533963  .00000343  00000+0  10887-3 0  9992
2 41185  47.0013 282.9257 0002139 214.6325 145.4422 14.58856169558552
ORBCOMM FM108           
1 41187U 15081J   26165.54775661  .00000303  00000+0  10032-3 0  9991
2 41187  47.0035 194.6770 0002809 212.6751 147.3961 14.58867428559697
ORBCOMM FM117           
1 41188U 15081K   26165.78720742  .00000279  00000+0  95337-4 0  9992
2 41188  46.9995 192.1789 0003366 215.0215 145.0450 14.58863849559775
ORBCOMM FM116           
1 41189U 15081L   26165.63071435  .00000570  00000+0  15661-3 0  9990
2 41189  47.0030 282.7098 0000676  42.8537 317.2401 14.58879865558561
HORYU-4                 
1 41340U 16012D   26165.49642719  .00399139  56274-4  10359-2 0  9996
2 41340  30.9847  98.7619 0004716 253.7574 106.2569 15.93820636570381
ZIYUAN 3-02 (ZY 3-02)   
1 41556U 16033A   26165.88781868  .00005241  00000+0  23591-3 0  9992
2 41556  97.3841 241.7064 0011238 298.9609  61.0500 15.21462495557634
CARTOSAT-2C             
1 41599U 16040A   26165.88695690  .00004744  00000+0  22770-3 0  9999
2 41599  97.4489 225.8966 0010418 138.3225 221.8805 15.19303316553367
LAPAN-A3                
1 41603U 16040E   26165.84144530  .00003170  00000+0  10136-3 0  9998
2 41603  97.1485 162.0642 0011175  33.6059 326.5890 15.33091095554454
GAOFEN-3                
1 41727U 16049A   26165.86387968 -.00000105  00000+0 -18730-4 0  9996
2 41727  98.4006 173.6846 0001347 100.8071 259.3270 14.42214808518317
CAS-2T & KS-1Q          
1 41847U 16066G   26165.47017350  .00001606  00000+0  23210-3 0  9993
2 41847  98.3821 241.2375 0342714 137.6929 225.1249 14.44686169504406
YUNHAI-1 01             
1 41857U 16068A   26165.86172266  .00000300  00000+0  12633-3 0  9994
2 41857  98.5827 176.8901 0006260  49.2389 310.9337 14.32704095501497
RESOURCESAT-2A          
1 41877U 16074A   26165.81856917  .00000335  00000+0  17272-3 0  9992
2 41877  98.7533 239.3420 0003334  88.1141 272.0418 14.21616476493966
TANSAT                  
1 41898U 16081A   26165.84974308  .00000351  00000+0  83544-4 0  9995
2 41898  98.5357 166.0379 0019698 319.8272  40.1470 14.59949536504286
JILIN-1 03              
1 41914U 17002B   26165.81882972  .00012221  00000+0  29292-3 0  9998
2 41914  97.1939 172.9366 0006509 161.6893 198.4590 15.41526549521496
CARTOSAT-2D             
1 41948U 17008A   26165.85324009  .00003553  00000+0  17146-3 0  9990
2 41948  97.4111 225.2027 0003746 239.8701 120.2163 15.19316587517229
